CCSDS_OMM_VERS = 2.0
CREATION_DATE  = 
ORIGINATOR     = 

OBJECT_NAME    = OKEAN-3
OBJECT_ID      = 1991-039A
CENTER_NAME    = EARTH
REF_FRAME      = TEME
TIME_SYSTEM    = UTC
MEAN_ELEMENT_THEORY = SGP/SGP4

EPOCH          = 2025-11-17T09:36:19.135872
MEAN_MOTION    = 15.03879775
ECCENTRICITY   = .0014267
INCLINATION    = 82.5161
RA_OF_ASC_NODE = 85.5664
ARG_OF_PERICENTER = 358.8136
MEAN_ANOMALY   = 1.3053

EPHEMERIS_TYPE = 0
CLASSIFICATION_TYPE = U
NORAD_CAT_ID   = 21397
ELEMENT_SET_NO = 999
REV_AT_EPOCH   = 84815
BSTAR          = .36902E-3
MEAN_MOTION_DOT = .5118E-4
MEAN_MOTION_DDOT = 0

CCSDS_OMM_VERS = 2.0
CREATION_DATE  = 
ORIGINATOR     = 

OBJECT_NAME    = COSMOS 2151
OBJECT_ID      = 1991-042A
CENTER_NAME    = EARTH
REF_FRAME      = TEME
TIME_SYSTEM    = UTC
MEAN_ELEMENT_THEORY = SGP/SGP4

EPOCH          = 2025-11-17T11:13:36.968736
MEAN_MOTION    = 14.99564776
ECCENTRICITY   = .0014124
INCLINATION    = 82.4983
RA_OF_ASC_NODE = 191.8527
ARG_OF_PERICENTER = 79.0121
MEAN_ANOMALY   = 281.2691

EPHEMERIS_TYPE = 0
CLASSIFICATION_TYPE = U
NORAD_CAT_ID   = 21422
ELEMENT_SET_NO = 999
REV_AT_EPOCH   = 84637
BSTAR          = .24051E-3
MEAN_MOTION_DOT = .2988E-4
MEAN_MOTION_DDOT = 0

CCSDS_OMM_VERS = 2.0
CREATION_DATE  = 
ORIGINATOR     = 

OBJECT_NAME    = SL-14 R/B
OBJECT_ID      = 1991-042B
CENTER_NAME    = EARTH
REF_FRAME      = TEME
TIME_SYSTEM    = UTC
MEAN_ELEMENT_THEORY = SGP/SGP4

EPOCH          = 2025-11-17T10:59:28.114656
MEAN_MOTION    = 14.81706570
ECCENTRICITY   = .0015563
INCLINATION    = 82.4918
RA_OF_ASC_NODE = 325.4345
ARG_OF_PERICENTER = 248.0048
MEAN_ANOMALY   = 111.9512

EPHEMERIS_TYPE = 0
CLASSIFICATION_TYPE = U
NORAD_CAT_ID   = 21423
ELEMENT_SET_NO = 999
REV_AT_EPOCH   = 83645
BSTAR          = .94465E-4
MEAN_MOTION_DOT = .768E-5
MEAN_MOTION_DDOT = 0

CCSDS_OMM_VERS = 2.0
CREATION_DATE  = 
ORIGINATOR     = 

OBJECT_NAME    = ERS-1
OBJECT_ID      = 1991-050A
CENTER_NAME    = EARTH
REF_FRAME      = TEME
TIME_SYSTEM    = UTC
MEAN_ELEMENT_THEORY = SGP/SGP4

EPOCH          = 2025-11-17T07:03:34.845120
MEAN_MOTION    = 14.39337508
ECCENTRICITY   = .0032124
INCLINATION    = 98.7918
RA_OF_ASC_NODE = 331.7110
ARG_OF_PERICENTER = 173.8779
MEAN_ANOMALY   = 186.2807

EPHEMERIS_TYPE = 0
CLASSIFICATION_TYPE = U
NORAD_CAT_ID   = 21574
ELEMENT_SET_NO = 999
REV_AT_EPOCH   = 79956
BSTAR          = .20834E-3
MEAN_MOTION_DOT = .605E-5
MEAN_MOTION_DDOT = 0

CCSDS_OMM_VERS = 2.0
CREATION_DATE  = 
ORIGINATOR     = 

OBJECT_NAME    = ARIANE 40 R/B
OBJECT_ID      = 1991-050F
CENTER_NAME    = EARTH
REF_FRAME      = TEME
TIME_SYSTEM    = UTC
MEAN_ELEMENT_THEORY = SGP/SGP4

EPOCH          = 2025-11-17T09:42:11.476800
MEAN_MOTION    = 14.42783854
ECCENTRICITY   = .0004128
INCLINATION    = 98.2204
RA_OF_ASC_NODE = 12.7451
ARG_OF_PERICENTER = 65.9847
MEAN_ANOMALY   = 294.1775

EPHEMERIS_TYPE = 0
CLASSIFICATION_TYPE = U
NORAD_CAT_ID   = 21610
ELEMENT_SET_NO = 999
REV_AT_EPOCH   = 80280
BSTAR          = .22193E-3
MEAN_MOTION_DOT = .698E-5
MEAN_MOTION_DDOT = 0

CCSDS_OMM_VERS = 2.0
CREATION_DATE  = 
ORIGINATOR     = 

OBJECT_NAME    = INTERCOSMOS 25
OBJECT_ID      = 1991-086A
CENTER_NAME    = EARTH
REF_FRAME      = TEME
TIME_SYSTEM    = UTC
MEAN_ELEMENT_THEORY = SGP/SGP4

EPOCH          = 2025-11-17T10:53:38.817600
MEAN_MOTION    = 12.11619239
ECCENTRICITY   = .1488026
INCLINATION    = 82.6086
RA_OF_ASC_NODE = 17.8615
ARG_OF_PERICENTER = 358.9146
MEAN_ANOMALY   = 0.8798

EPHEMERIS_TYPE = 0
CLASSIFICATION_TYPE = U
NORAD_CAT_ID   = 21819
ELEMENT_SET_NO = 999
REV_AT_EPOCH   = 48309
BSTAR          = .48282E-3
MEAN_MOTION_DOT = .2459E-4
MEAN_MOTION_DDOT = 0

CCSDS_OMM_VERS = 2.0
CREATION_DATE  = 
ORIGINATOR     = 

OBJECT_NAME    = SL-8 R/B
OBJECT_ID      = 1992-008B
CENTER_NAME    = EARTH
REF_FRAME      = TEME
TIME_SYSTEM    = UTC
MEAN_ELEMENT_THEORY = SGP/SGP4

EPOCH          = 2025-11-17T10:57:07.336224
MEAN_MOTION    = 13.75951195
ECCENTRICITY   = .0036145
INCLINATION    = 82.9277
RA_OF_ASC_NODE = 351.2537
ARG_OF_PERICENTER = 88.4553
MEAN_ANOMALY   = 22.5548

EPHEMERIS_TYPE = 0
CLASSIFICATION_TYPE = U
NORAD_CAT_ID   = 21876
ELEMENT_SET_NO = 999
REV_AT_EPOCH   = 69398
BSTAR          = .14705E-3
MEAN_MOTION_DOT = .159E-5
MEAN_MOTION_DDOT = 0

CCSDS_OMM_VERS = 2.0
CREATION_DATE  = 
ORIGINATOR     = 

OBJECT_NAME    = SL-8 R/B
OBJECT_ID      = 1992-020B
CENTER_NAME    = EARTH
REF_FRAME      = TEME
TIME_SYSTEM    = UTC
MEAN_ELEMENT_THEORY = SGP/SGP4

EPOCH          = 2025-11-17T07:42:50.917824
MEAN_MOTION    = 13.75522635
ECCENTRICITY   = .0027665
INCLINATION    = 82.9314
RA_OF_ASC_NODE = 237.1903
ARG_OF_PERICENTER = 251.1049
MEAN_ANOMALY   = 231.2139

EPHEMERIS_TYPE = 0
CLASSIFICATION_TYPE = U
NORAD_CAT_ID   = 21938
ELEMENT_SET_NO = 999
REV_AT_EPOCH   = 68568
BSTAR          = .95367E-4
MEAN_MOTION_DOT = .107E-5
MEAN_MOTION_DDOT = 0

CCSDS_OMM_VERS = 2.0
CREATION_DATE  = 
ORIGINATOR     = 

OBJECT_NAME    = USA 81
OBJECT_ID      = 1992-023A
CENTER_NAME    = EARTH
REF_FRAME      = TEME
TIME_SYSTEM    = UTC
MEAN_ELEMENT_THEORY = SGP/SGP4

EPOCH          = 2025-11-17T09:29:22.475328
MEAN_MOTION    = 14.32314476
ECCENTRICITY   = .0002483
INCLINATION    = 85.0105
RA_OF_ASC_NODE = 196.1902
ARG_OF_PERICENTER = 72.1876
MEAN_ANOMALY   = 287.9587

EPHEMERIS_TYPE = 0
CLASSIFICATION_TYPE = U
NORAD_CAT_ID   = 21949
ELEMENT_SET_NO = 999
REV_AT_EPOCH   = 7871
BSTAR          = .11154E-3
MEAN_MOTION_DOT = .321E-5
MEAN_MOTION_DDOT = 0

CCSDS_OMM_VERS = 2.0
CREATION_DATE  = 
ORIGINATOR     = 

OBJECT_NAME    = COSMOS 2219
OBJECT_ID      = 1992-076A
CENTER_NAME    = EARTH
REF_FRAME      = TEME
TIME_SYSTEM    = UTC
MEAN_ELEMENT_THEORY = SGP/SGP4

EPOCH          = 2025-11-17T06:12:13.270752
MEAN_MOTION    = 14.14067705
ECCENTRICITY   = .0017985
INCLINATION    = 71.0611
RA_OF_ASC_NODE = 253.0955
ARG_OF_PERICENTER = 3.6652
MEAN_ANOMALY   = 356.4599

EPHEMERIS_TYPE = 0
CLASSIFICATION_TYPE = U
NORAD_CAT_ID   = 22219
ELEMENT_SET_NO = 999
REV_AT_EPOCH   = 70248
BSTAR          = .31108E-4
MEAN_MOTION_DOT = .12E-6
MEAN_MOTION_DDOT = 0

CCSDS_OMM_VERS = 2.0
CREATION_DATE  = 
ORIGINATOR     = 

OBJECT_NAME    = SL-16 R/B
OBJECT_ID      = 1992-076B
CENTER_NAME    = EARTH
REF_FRAME      = TEME
TIME_SYSTEM    = UTC
MEAN_ELEMENT_THEORY = SGP/SGP4

EPOCH          = 2025-11-17T12:23:04.063200
MEAN_MOTION    = 14.16835749
ECCENTRICITY   = .0015259
INCLINATION    = 71.0008
RA_OF_ASC_NODE = 64.6627
ARG_OF_PERICENTER = 266.8921
MEAN_ANOMALY   = 171.0921

EPHEMERIS_TYPE = 0
CLASSIFICATION_TYPE = U
NORAD_CAT_ID   = 22220
ELEMENT_SET_NO = 999
REV_AT_EPOCH   = 70594
BSTAR          = -.36039E-4
MEAN_MOTION_DOT = -.12E-5
MEAN_MOTION_DDOT = 0

