OKEAN-3                 
1 21397U 91039A   25321.40022148  .00005118  00000+0  36902-3 0  9995
2 21397  82.5161  85.5664 0014267 358.8136   1.3053 15.03879775848155
COSMOS 2151             
1 21422U 91042A   25321.46778899  .00002988  00000+0  24051-3 0  9999
2 21422  82.4983 191.8527 0014124  79.0121 281.2691 14.99564776846377
SL-14 R/B               
1 21423U 91042B   25321.45796429  .00000768  00000+0  94465-4 0  9999
2 21423  82.4918 325.4345 0015563 248.0048 111.9512 14.81706570836453
ERS-1                   
1 21574U 91050A   25321.29415330  .00000605  00000+0  20834-3 0  9994
2 21574  98.7918 331.7110 0032124 173.8779 186.2807 14.39337508799564
ARIANE 40 R/B           
1 21610U 91050F   25321.40429950  .00000698  00000+0  22193-3 0  9993
2 21610  98.2204  12.7451 0004128  65.9847 294.1775 14.42783854802800
INTERCOSMOS 25          
1 21819U 91086A   25321.45392150  .00002459  00000+0  48282-3 0  9993
2 21819  82.6086  17.8615 1488026 358.9146   0.8798 12.11619239483097
SL-8 R/B                
1 21876U 92008B   25321.45633491  .00000159  00000+0  14705-3 0  9995
2 21876  82.9277 351.2537 0036145  88.4553  22.5548 13.75951195693986
SL-8 R/B                
1 21938U 92020B   25321.32142266  .00000107  00000+0  95367-4 0  9996
2 21938  82.9314 237.1903 0027665 251.1049 231.2139 13.75522635685688
USA 81                  
1 21949U 92023A   25321.39539902  .00000321  00000+0  11154-3 0  9994
2 21949  85.0105 196.1902 0002483  72.1876 287.9587 14.32314476 78716
COSMOS 2219             
1 22219U 92076A   25321.25848694  .00000012  00000+0  31108-4 0  9998
2 22219  71.0611 253.0955 0017985   3.6652 356.4599 14.14067705702482
SL-16 R/B               
1 22220U 92076B   25321.51601925 -.00000120  00000+0 -36039-4 0  9993
2 22220  71.0008  64.6627 0015259 266.8921 171.0921 14.16835749705947
